     2.100          NAVIGATION                              RINEX VERSION / TYPE
fic2rin                                 01/11/2012 00:06:38 PGM / RUN BY / DATE
                                                            END OF HEADER
19 12  1 10 20  0  0.0 -.224246643484D-03 -.386535248253D-11  .000000000000D+00
     .680000000000D+02 -.666250000000D+02  .415088718683D-08  .969408609063D+00
    -.340677797794D-05  .781792763155D-02  .125933438540D-04  .515374663925D+04
     .244800000000D+06  .167638063431D-07  .317345861106D+00  .160187482834D-06
     .960065434053D+00  .135625000000D+03  .137904402649D+00 -.779782481070D-08
     .192865176466D-09  .100000000000D+01  .167000000000D+04  .000000000000D+00
     .240000000000D+01  .000000000000D+00 -.144354999065D-07  .680000000000D+02
     .237606000000D+06  .400000000000D+01
20 12  1 10 20  0  0.0  .597932375968D-04  .795807864051D-12  .000000000000D+00
     .300000000000D+02 -.327187500000D+02  .569988028004D-08 -.263104834646D+01
    -.166893005371D-05  .507717556320D-02  .560097396374D-05  .515378277588D+04
     .244800000000D+06  .115483999252D-06  .228292222522D+01  .186264514923D-07
     .930958878014D+00  .255312500000D+03  .126723995784D+01 -.852856953487D-08
    -.369301097159D-09  .100000000000D+01  .167000000000D+04  .000000000000D+00
     .240000000000D+01  .000000000000D+00 -.791624188423D-08  .300000000000D+02
     .237606000000D+06  .400000000000D+01
21 12  1 10 20  0  0.0 -.196729321033D-03 -.261479726760D-11  .000000000000D+00
     .190000000000D+02  .442187500000D+02  .539093883996D-08 -.199285504790D+01
     .201724469662D-05  .183798208600D-01  .635720789433D-05  .515366123390D+04
     .244800000000D+06  .193715095520D-06  .128419301179D+01 -.113621354103D-06
     .931083546430D+00  .235718750000D+03 -.230405941652D+01 -.821784230612D-08
     .763960393445D-09  .100000000000D+01  .167000000000D+04  .000000000000D+00
     .240000000000D+01  .000000000000D+00 -.111758708954D-07  .190000000000D+02
     .237606000000D+06  .400000000000D+01
22 12  1 10 20  0  0.0  .143004115671D-03 -.113686837722D-12  .000000000000D+00
     .820000000000D+02 -.351562500000D+02  .563809199202D-08  .236417101884D+01
    -.184774398804D-05  .572497793473D-02  .593252480030D-05  .515368848228D+04
     .244800000000D+06  .372529029846D-08  .234040790860D+01 -.102445483208D-06
     .928366184875D+00  .248875000000D+03 -.198723116217D+01 -.846499545818D-08
    -.453233164695D-09  .100000000000D+01  .167000000000D+04  .000000000000D+00
     .340000000000D+01  .000000000000D+00 -.167638063431D-07  .820000000000D+02
     .237606000000D+06  .400000000000D+01
23 12  1 10 20  0  0.0  .243065413088D-03 -.329691829393D-11  .000000000000D+00
     .920000000000D+02  .673125000000D+02  .420303221602D-08  .503611598336D+00
     .343844294548D-05  .752732297406D-02  .122319906950D-04  .515369477463D+04
     .244800000000D+06  .838190317154D-07 -.289851585912D+01  .316649675369D-07
     .962213041681D+00  .140812500000D+03 -.303009884060D+01 -.785961309872D-08
    -.384301721995D-09  .100000000000D+01  .167000000000D+04  .000000000000D+00
     .240000000000D+01  .000000000000D+00 -.204890966415D-07  .920000000000D+02
     .237606000000D+06  .400000000000D+01
25 12  1 10 20  0  0.0  .309962779284D-04  .227373675443D-12  .000000000000D+00
     .800000000000D+02 -.897187500000D+02  .445375694543D-08 -.250004087694D+01
    -.454485416412D-05  .109646143392D-02  .269338488579D-05  .515377701378D+04
     .244800000000D+06 -.353902578354D-07 -.827585903223D+00 -.931322574615D-08
     .966917935442D+00  .331062500000D+03  .721872903190D+00 -.828141638280D-08
    -.248581783000D-09  .100000000000D+01  .167000000000D+04  .000000000000D+00
     .240000000000D+01  .000000000000D+00  .512227416039D-08  .800000000000D+02
     .237606000000D+06  .400000000000D+01
26 12  1 10 20  0  0.0 -.294215045869D-03 -.140971678775D-10  .000000000000D+00
     .860000000000D+02  .665625000000D+02  .382194491363D-08  .368624001252D+00
     .374019145966D-05  .206112236483D-01  .121928751469D-04  .515365890312D+04
     .244800000000D+06 -.307336449623D-06 -.282877542802D+01  .128522515297D-06
     .985273604532D+00  .160750000000D+03  .116808360010D+01 -.789997192268D-08
    -.349300264044D-09  .100000000000D+01  .167000000000D+04  .000000000000D+00
     .340000000000D+01  .000000000000D+00 -.605359673500D-08  .860000000000D+02
     .237606000000D+06  .400000000000D+01
27 12  1 10 20  0  0.0  .344939064234D-03  .386535248253D-11  .000000000000D+00
     .380000000000D+02  .973437500000D+02  .422231873367D-08  .132522310797D+01
     .453740358353D-05  .219758512685D-01  .457465648651D-05  .515356097984D+04
     .244800000000D+06  .337138772011D-06 -.190468752366D+01 -.398606061935D-06
     .981665296608D+00  .294281250000D+03 -.114673911623D+01 -.805354974839D-08
     .206794328100D-09  .100000000000D+01  .167000000000D+04  .000000000000D+00
     .240000000000D+01  .000000000000D+00 -.419095158577D-08  .380000000000D+02
     .237606000000D+06  .400000000000D+01
28 12  1 10 20  0  0.0  .101474113762D-03  .363797880709D-11  .000000000000D+00
     .810000000000D+02 -.108500000000D+03  .415374444870D-08  .236424206984D+01
    -.581145286560D-05  .177859093528D-01  .251270830631D-05  .515371057701D+04
     .244800000000D+06  .186264514923D-06 -.770119404553D+00 -.173225998878D-06
     .977360646994D+00  .338093750000D+03 -.185523499702D+01 -.796926052312D-08
    -.321084803042D-09  .100000000000D+01  .167000000000D+04  .000000000000D+00
     .340000000000D+01  .000000000000D+00 -.107102096081D-07  .810000000000D+02
     .237606000000D+06  .400000000000D+01
29 12  1 10 20  0  0.0  .273906625807D-03  .352429196937D-11  .000000000000D+00
     .480000000000D+02 -.679687500000D+02  .405445459859D-08 -.175014233862D+01
    -.347755849361D-05  .215738906991D-02  .116042792797D-04  .515366285515D+04
     .244800000000D+06 -.167638063431D-07  .272464609679D+00  .596046447754D-07
     .963165808042D+00  .157125000000D+03 -.118946400008D+01 -.775460872487D-08
     .228580949885D-09  .100000000000D+01  .167000000000D+04  .000000000000D+00
     .240000000000D+01  .000000000000D+00 -.931322574615D-08  .480000000000D+02
     .237606000000D+06  .400000000000D+01
30 12  1 10 20  0  0.0 -.493554398417D-05 -.127329258248D-10  .000000000000D+00
     .870000000000D+02 -.811562500000D+02  .480841457548D-08  .157805108384D+01
    -.444054603577D-05  .108989920700D-01  .177510082722D-05  .515360202789D+04
     .244800000000D+06  .242143869400D-07 -.917231578903D+00 -.307336449623D-06
     .958126261530D+00  .345812500000D+03  .155305804278D+01 -.852142638018D-08
    -.226080845746D-09  .100000000000D+01  .167000000000D+04  .000000000000D+00
     .240000000000D+02  .000000000000D+00 -.419095158577D-08  .870000000000D+02
     .237606000000D+06  .400000000000D+01
31 12  1 10 20  0  0.0  .193897169083D-03  .477484718431D-11  .000000000000D+00
     .760000000000D+02  .100750000000D+03  .429660754238D-08 -.108432649446D+01
     .526569783688D-05  .802805705462D-02  .378116965294D-05  .515356079674D+04
     .244800000000D+06 -.763684511185D-07 -.184909591690D+01  .391155481339D-07
     .980426304474D+00  .322062500000D+03 -.930533617969D+00 -.823784313923D-08
     .344657213499D-09  .100000000000D+01  .167000000000D+04  .000000000000D+00
     .240000000000D+01  .000000000000D+00 -.130385160446D-07  .760000000000D+02
     .237606000000D+06  .400000000000D+01
32 12  1 10 20  0  0.0 -.390699133277D-03 -.568434188608D-11  .000000000000D+00
     .810000000000D+02 -.321562500000D+02  .520485966044D-08 -.415717525675D+00
    -.173784792423D-05  .119531956734D-01  .676698982716D-05  .515375501823D+04
     .244800000000D+06  .000000000000D+00  .241242953222D+01 -.171363353729D-06
     .952655859312D+00  .247656250000D+03 -.635126315675D+00 -.844356599413D-08
    -.423231915022D-09  .100000000000D+01  .167000000000D+04  .000000000000D+00
     .240000000000D+01  .000000000000D+00 -.279396772385D-08  .810000000000D+02
     .237606000000D+06  .400000000000D+01
30 12  1 10 19 59 44.0 -.493740662932D-05 -.128466126625D-10  .000000000000D+00
     .200000000000D+01 -.811562500000D+02  .480805741775D-08  .157571666450D+01
    -.444054603577D-05  .108989932342D-01  .177510082722D-05  .515360202599D+04
     .244784000000D+06  .242143869400D-07 -.917231439925D+00 -.307336449623D-06
     .958126251290D+00  .345812500000D+03  .155305865136D+01 -.852142638018D-08
    -.226080845746D-09  .100000000000D+01  .167000000000D+04  .000000000000D+00
     .340000000000D+01  .000000000000D+00 -.419095158577D-08  .200000000000D+01
     .238386000000D+06  .400000000000D+01
 7 12  1 10 19 59 44.0  .490760430694D-04  .261479726760D-11  .000000000000D+00
     .400000000000D+01  .116875000000D+03  .428660712582D-08 -.110204599460D+01
     .596791505814D-05  .507857894991D-02  .393204391003D-05  .515362456512D+04
     .244784000000D+06  .670552253723D-07 -.185139534031D+01 -.160187482834D-06
     .975333070332D+00  .312531250000D+03 -.300292971475D+01 -.818462663684D-08
     .312513017422D-09  .100000000000D+01  .167000000000D+04  .000000000000D+00
     .240000000000D+01  .000000000000D+00 -.111758708954D-07  .400000000000D+01
     .239736000000D+06  .400000000000D+01
26 12  1 10 19 59 44.0 -.294215045869D-03 -.140971678775D-10  .000000000000D+00
     .000000000000D+00  .665625000000D+02  .382194491363D-08  .366290023713D+00
     .374019145966D-05  .206112248125D-01  .121928751469D-04  .515365888596D+04
     .244784000000D+06 -.307336449623D-06 -.282877530514D+01  .128522515297D-06
     .985273627939D+00  .160750000000D+03  .116808398339D+01 -.789997192268D-08
    -.349300264044D-09  .100000000000D+01  .167000000000D+04  .000000000000D+00
     .240000000000D+01  .000000000000D+00 -.605359673500D-08  .000000000000D+00
     .242136000000D+06  .400000000000D+01
